{
    "links": {
        "self": "http://www.neowsapp.com/rest/v1/neo/3797452?api_key=iIulBulltgU6a56xZRHN4H3l9WmuAYTsLGpBGhQ2"
    },
    "id": "3797452",
    "neo_reference_id": "3797452",
    "name": "(2018 AL2)",
    "designation": "2018 AL2",
    "nasa_jpl_url": "http://ssd.jpl.nasa.gov/sbdb.cgi?sstr=3797452",
    "absolute_magnitude_h": 24.1,
    "estimated_diameter": {
        "kilometers": {
            "estimated_diameter_min": 0.040230458,
            "estimated_diameter_max": 0.0899580388
        },
        "meters": {
            "estimated_diameter_min": 40.2304579834,
            "estimated_diameter_max": 89.9580388169
        },
        "miles": {
            "estimated_diameter_min": 0.0249980399,
            "estimated_diameter_max": 0.0558973165
        },
        "feet": {
            "estimated_diameter_min": 131.9896957704,
            "estimated_diameter_max": 295.1379320721
        }
    },
    "is_potentially_hazardous_asteroid": false,
    "close_approach_data": [
        {
            "close_approach_date": "2012-01-02",
            "close_approach_date_full": "2012-Jan-02 10:55",
            "epoch_date_close_approach": 1325501700000,
            "relative_velocity": {
                "kilometers_per_second": "4.9600119307",
                "kilometers_per_hour": "17856.0429504744",
                "miles_per_hour": "11095.0506877545"
            },
            "miss_distance": {
                "astronomical": "0.4286907367",
                "lunar": "166.7606965763",
                "kilometers": "64131221.099050829",
                "miles": "39849292.9546822802"
            },
            "orbiting_body": "Earth"
        },
        {
            "close_approach_date": "2015-01-18",
            "close_approach_date_full": "2015-Jan-18 20:49",
            "epoch_date_close_approach": 1421614140000,
            "relative_velocity": {
                "kilometers_per_second": "5.7706483558",
                "kilometers_per_hour": "20774.3340807023",
                "miles_per_hour": "12908.3633069786"
            },
            "miss_distance": {
                "astronomical": "0.282004594",
                "lunar": "109.699787066",
                "kilometers": "42187286.59261478",
                "miles": "26213964.330972764"
            },
            "orbiting_body": "Earth"
        },
        {
            "close_approach_date": "2018-01-24",
            "close_approach_date_full": "2018-Jan-24 15:12",
            "epoch_date_close_approach": 1516806720000,
            "relative_velocity": {
                "kilometers_per_second": "5.2312348918",
                "kilometers_per_hour": "18832.445610595",
                "miles_per_hour": "11701.7493295389"
            },
            "miss_distance": {
                "astronomical": "0.2043496918",
                "lunar": "79.4920301102",
                "kilometers": "30570278.628436466",
                "miles": "18995490.3071205908"
            },
            "orbiting_body": "Earth"
        },
        {
            "close_approach_date": "2021-01-30",
            "close_approach_date_full": "2021-Jan-30 08:13",
            "epoch_date_close_approach": 1611994380000,
            "relative_velocity": {
                "kilometers_per_second": "5.6397995373",
                "kilometers_per_hour": "20303.2783343096",
                "miles_per_hour": "12615.6675850047"
            },
            "miss_distance": {
                "astronomical": "0.2737583791",
                "lunar": "106.4920094699",
                "kilometers": "40953670.408012517",
                "miles": "25447430.7784940546"
            },
            "orbiting_body": "Earth"
        },
        {
            "close_approach_date": "2024-02-16",
            "close_approach_date_full": "2024-Feb-16 20:29",
            "epoch_date_close_approach": 1708115340000,
            "relative_velocity": {
                "kilometers_per_second": "4.9198793479",
                "kilometers_per_hour": "17711.5656525084",
                "miles_per_hour": "11005.27811336"
            },
            "miss_distance": {
                "astronomical": "0.4296941304",
                "lunar": "167.1510167256",
                "kilometers": "64281326.659342248",
                "miles": "39942564.2248011024"
            },
            "orbiting_body": "Earth"
        }
    ],
    "orbital_data": {
        "orbit_id": "5",
        "orbit_determination_date": "2018-02-13 06:27:17",
        "first_observation_date": "2017-12-26",
        "last_observation_date": "2018-02-12",
        "data_arc_in_days": 48,
        "observations_used": 34,
        "orbit_uncertainty": "6",
        "minimum_orbit_intersection": ".201283",
        "jupiter_tisserand_invariant": "3.647",
        "epoch_osculation": "2459000.5",
        "eccentricity": ".4260934460332526",
        "semi_major_axis": "2.06545614450758",
        "inclination": "8.532868265065032",
        "ascending_node_longitude": "306.996988988033",
        "orbital_period": "1084.232432246325",
        "perihelion_distance": "1.185378818263789",
        "perihelion_argument": "175.6171360602856",
        "aphelion_distance": "2.945533470751371",
        "perihelion_time": "2459226.469161483509",
        "mean_anomaly": "284.9709788098446",
        "mean_motion": ".3320321264086779",
        "equinox": "J2000",
        "orbit_class": {
            "orbit_class_type": "AMO",
            "orbit_class_description": "Near-Earth asteroid orbits similar to that of 1221 Amor",
            "orbit_class_range": "1.017 AU < q (perihelion) < 1.3 AU"
        }
    },
    "is_sentry_object": false
}